NORAD_CAT_ID,OBJECT_NAME,OBJECT_TYPE,EPOCH,MEAN_MOTION,ECCENTRICITY,INCLINATION,RA_OF_ASC_NODE,ARG_OF_PERICENTER,MEAN_ANOMALY,BSTAR,MEAN_MOTION_DOT,MEAN_MOTION_DDOT,TLE_LINE0,TLE_LINE1,TLE_LINE2,SEMIMAJOR_AXIS,PERIOD,APOGEE,PERIGEE,DECAYED
54768.0,STARLINK-5444,PAYLOAD,2023-04-16 16:26:28,15.08835303,0.0001036,53.2188,98.912,100.143,259.9679,-4.9976e-05,-1.083e-05,0.0,0 STARLINK-5444,1 54768U 22175L   23106.68505081 -.00001083  00000-0 -49976-4 0  9995,2 54768  53.2188  98.9120 0001036 100.1430 259.9679 15.08835303 20406,6917.895,95.438,540.476,539.043,0.0
54768.0,STARLINK-5444,PAYLOAD,2023-04-17 11:31:05,15.08850482,0.0001312,53.2189,95.3441,89.6836,270.4306,-0.00015622,-2.774e-05,0.0,0 STARLINK-5444,1 54768U 22175L   23107.47992857 -.00002774  00000-0 -15622-3 0  9992,2 54768  53.2189  95.3441 0001312  89.6836 270.4306 15.08850482 20525,6917.848,95.437,540.621,538.806,0.0
54768.0,STARLINK-5444,PAYLOAD,2023-04-17 16:17:15,15.08838647,0.0001382,53.2193,94.4518,87.8654,272.2497,-3.8931e-05,-9.07e-06,0.0,0 STARLINK-5444,1 54768U 22175L   23107.67865360 -.00000907  00000-0 -38931-4 0  9997,2 54768  53.2193  94.4518 0001382  87.8654 272.2497 15.08838647 20553,6917.885,95.438,540.706,538.793,0.0
54768.0,STARLINK-5444,PAYLOAD,2023-04-18 08:11:06,15.08845641,0.0001204,53.2184,91.4787,98.9394,261.1734,3.8833e-05,3.3e-06,0.0,0 STARLINK-5444,1 54768U 22175L   23108.34104715  .00000330  00000-0  38833-4 0  9991,2 54768  53.2184  91.4787 0001204  98.9394 261.1734 15.08845641 20659,6917.863,95.437,540.561,538.895,0.0
54768.0,STARLINK-5444,PAYLOAD,2023-04-18 16:08:02,15.08835312,0.0001263,53.219,89.9919,90.2414,269.8723,-4.3381e-05,-9.78e-06,0.0,0 STARLINK-5444,1 54768U 22175L   23108.67225688 -.00000978  00000-0 -43381-4 0  9994,2 54768  53.2190  89.9919 0001263  90.2414 269.8723 15.08835312 20701,6917.895,95.438,540.633,538.886,0.0
54768.0,STARLINK-5444,PAYLOAD,2023-04-19 08:01:54,15.08837647,0.0001201,53.2179,87.0179,89.2934,270.8196,2.785e-06,-2.44e-06,0.0,0 STARLINK-5444,1 54768U 22175L   23109.33465661 -.00000244  00000-0  27850-5 0  9994,2 54768  53.2179  87.0179 0001201  89.2934 270.8196 15.08837647 18641,6917.888,95.438,540.583,538.922,0.0
54768.0,STARLINK-5444,PAYLOAD,2023-04-19 15:58:49,15.08840218,0.0001198,53.2183,85.5314,88.9494,271.1635,1.3362e-05,-7.5e-07,0.0,0 STARLINK-5444,1 54768U 22175L   23109.66585463 -.00000075  00000-0  13362-4 0  9997,2 54768  53.2183  85.5314 0001198  88.9494 271.1635 15.08840218 20858,6917.88,95.438,540.573,538.916,0.0
54768.0,STARLINK-5444,PAYLOAD,2023-04-20 04:41:54,15.08846602,0.0001163,53.2177,83.152,88.5412,271.5713,6.806e-05,7.96e-06,0.0,0 STARLINK-5444,1 54768U 22175L   23110.19576706  .00000796  00000-0  68060-4 0  9991,2 54768  53.2177  83.1520 0001163  88.5412 271.5713 15.08846602 20935,6917.86,95.437,540.53,538.921,0.0
54768.0,STARLINK-5444,PAYLOAD,2023-04-20 23:46:33,15.08829657,9.3e-05,53.2185,79.5852,78.9853,281.1244,-7.7601e-07,-3e-06,0.0,0 STARLINK-5444,1 54768U 22175L   23110.99066171 -.00000300  00000-0 -77601-6 0  9995,2 54768  53.2185  79.5852 0000930  78.9853 281.1244 15.08829657 18893,6917.912,95.438,540.42,539.134,0.0
54768.0,STARLINK-5444,PAYLOAD,2023-04-21 02:57:19,15.08830599,9.73e-05,53.2187,78.991,77.8118,282.2983,6.5696e-06,-1.83e-06,0.0,0 STARLINK-5444,1 54768U 22175L   23111.12314154 -.00000183  00000-0  65696-5 0  9996,2 54768  53.2187  78.9910 0000973  77.8118 282.2983 15.08830599 21075,6917.909,95.438,540.447,539.101,0.0
54768.0,STARLINK-5444,PAYLOAD,2023-04-21 07:43:28,15.0883609,9.99e-05,53.2183,78.0978,84.7688,275.3418,-3.4144e-05,-8.31e-06,0.0,0 STARLINK-5444,1 54768U 22175L   23111.32186034 -.00000831  00000-0 -34144-4 0  9996,2 54768  53.2183  78.0978 0000999  84.7688 275.3418 15.08836090 21105,6917.892,95.438,540.448,539.066,0.0
54768.0,STARLINK-5444,PAYLOAD,2023-04-22 04:23:28,15.08852122,5.43e-05,53.2189,74.2324,62.5109,297.5938,6.3272e-05,7.2e-06,0.0,0 STARLINK-5444,1 54768U 22175L   23112.18296621  .00000720  00000-0  63272-4 0  9994,2 54768  53.2189  74.2324 0000543  62.5109 297.5938 15.08852122 19071,6917.843,95.437,540.084,539.333,0.0
54768.0,STARLINK-5444,PAYLOAD,2023-04-23 07:25:02,15.08841915,0.0001107,53.2177,69.1779,79.4372,280.6744,5.3918e-05,5.7e-06,0.0,0 STARLINK-5444,1 54768U 22175L   23113.30905316  .00000570  00000-0  53918-4 0  9996,2 54768  53.2177  69.1779 0001107  79.4372 280.6744 15.08841915 19246,6917.875,95.437,540.505,538.974,0.0
54768.0,STARLINK-5444,PAYLOAD,2023-04-24 05:40:26,15.08846475,0.000116,53.2185,65.0149,91.9908,268.1217,-7.4944e-05,-1.481e-05,0.0,0 STARLINK-5444,1 54768U 22175L   23114.23641329 -.00001481  00000-0 -74944-4 0  9996,2 54768  53.2185  65.0149 0001160  91.9908 268.1217 15.08846475 21542,6917.861,95.437,540.528,538.923,0.0
54768.0,STARLINK-5444,PAYLOAD,2023-04-25 05:31:11,15.08861325,0.0001342,53.2183,60.5534,110.0996,250.0141,0.0001107,1.475e-05,0.0,0 STARLINK-5444,1 54768U 22175L   23115.22999002  .00001475  00000-0  11070-3 0  9991,2 54768  53.2183  60.5534 0001342 110.0996 250.0141 15.08861325 21693,6917.815,95.436,540.609,538.752,0.0
54768.0,STARLINK-5444,PAYLOAD,2023-04-26 02:11:16,15.08814316,0.0001612,53.2178,56.6906,99.1688,260.9487,-0.00032235,-5.411e-05,0.0,0 STARLINK-5444,1 54768U 22175L   23116.09116636 -.00005411  00000-0 -32235-3 0  9993,2 54768  53.2178  56.6906 0001612  99.1688 260.9487 15.08814316 19666,6917.959,95.439,540.939,538.709,0.0
54768.0,STARLINK-5444,PAYLOAD,2023-04-26 03:46:39,15.08816936,0.0001627,53.2189,56.3919,91.9137,268.2042,-0.00028961,-4.891e-05,0.0,0 STARLINK-5444,1 54768U 22175L   23116.15740496 -.00004891  00000-0 -28961-3 0  9999,2 54768  53.2189  56.3919 0001627  91.9137 268.2042 15.08816936 21834,6917.951,95.439,540.941,538.69,0.0
54768.0,STARLINK-5444,PAYLOAD,2023-04-27 03:37:21,15.08869206,0.0001309,53.2185,51.9314,86.7498,273.3644,5.7951e-05,6.35e-06,0.0,0 STARLINK-5444,1 54768U 22175L   23117.15094671  .00000635  00000-0  57951-4 0  9999,2 54768  53.2185  51.9314 0001309  86.7498 273.3644 15.08869206 19828,6917.791,95.436,540.562,538.751,0.0
54768.0,STARLINK-5444,PAYLOAD,2023-04-27 05:12:43,15.08882154,0.0001475,53.2175,51.6316,103.6789,256.4367,0.00016206,2.295e-05,0.0,0 STARLINK-5444,1 54768U 22175L   23117.21717450  .00002295  00000-0  16206-3 0  9994,2 54768  53.2175  51.6316 0001475 103.6789 256.4367 15.08882154 21994,6917.752,95.435,540.637,538.596,0.0
54768.0,STARLINK-5444,PAYLOAD,2023-04-27 19:31:16,15.08822245,0.0001571,53.2185,48.9581,105.5621,254.5544,3.6531e-05,2.93e-06,0.0,0 STARLINK-5444,1 54768U 22175L   23117.81338503  .00000293  00000-0  36531-4 0  9998,2 54768  53.2185  48.9581 0001571 105.5621 254.5544 15.08822245 19922,6917.935,95.439,540.886,538.713,0.0
54768.0,STARLINK-5444,PAYLOAD,2023-04-28 06:38:58,15.08822851,0.0001432,53.2181,46.8747,101.4433,258.672,2.6752e-05,1.38e-06,0.0,0 STARLINK-5444,1 54768U 22175L   23118.27706861  .00000138  00000-0  26752-4 0  9997,2 54768  53.2181  46.8747 0001432 101.4433 258.6720 15.08822851 22154,6917.933,95.439,540.788,538.807,0.0
54768.0,STARLINK-5444,PAYLOAD,2023-04-29 04:54:21,15.08856779,0.0001546,53.218,42.7105,95.6436,264.4733,-0.00025416,-4.333e-05,0.0,0 STARLINK-5444,1 54768U 22175L   23119.20441542 -.00004333  00000-0 -25416-3 0  9991,2 54768  53.2180  42.7105 0001546  95.6436 264.4733 15.08856779 20130,6917.829,95.436,540.764,538.625,0.0
54768.0,STARLINK-5444,PAYLOAD,2023-04-29 17:37:27,15.08825544,0.0001695,53.218,40.3317,90.9064,269.2122,4.4433e-05,4.19e-06,0.0,0 STARLINK-5444,1 54768U 22175L   23119.73434526  .00000419  00000-0  44433-4 0  9993,2 54768  53.2180  40.3317 0001695  90.9064 269.2122 15.08825544 20219,6917.925,95.438,540.962,538.617,0.0
54768.0,STARLINK-5444,PAYLOAD,2023-04-29 23:58:59,15.08829894,0.0001682,53.2179,39.1422,92.637,267.4815,8.8387e-05,1.119e-05,0.0,0 STARLINK-5444,1 54768U 22175L   23119.99930185  .00001119  00000-0  88387-4 0  9997,2 54768  53.2179  39.1422 0001682  92.6370 267.4815 15.08829894 20250,6917.911,95.438,540.94,538.613,0.0
54768.0,STARLINK-5444,PAYLOAD,2023-04-30 19:03:38,15.08826528,0.0001712,53.2183,35.577,93.3399,266.7789,1.3435e-05,-7.4e-07,0.0,0 STARLINK-5444,1 54768U 22175L   23120.79419199 -.00000074  00000-0  13435-4 0  9996,2 54768  53.2183  35.5770 0001712  93.3399 266.7789 15.08826528 20370,6917.922,95.438,540.971,538.602,0.0
54768.0,STARLINK-5444,PAYLOAD,2023-04-30 23:49:47,15.08832025,0.000168,53.2185,34.6852,100.6066,259.5115,-6.033e-05,-1.248e-05,0.0,0 STARLINK-5444,1 54768U 22175L   23120.99291292 -.00001248  00000-0 -60330-4 0  9991,2 54768  53.2185  34.6852 0001680 100.6066 259.5115 15.08832025 22565,6917.905,95.438,540.932,538.608,0.0
54768.0,STARLINK-5444,PAYLOAD,2023-05-01 22:05:11,15.0884176,0.0001557,53.2182,30.5199,99.1355,260.9814,-2.6205e-05,-7.05e-06,0.0,0 STARLINK-5444,1 54768U 22175L   23121.92026818 -.00000705  00000-0 -26205-4 0  9995,2 54768  53.2182  30.5199 0001557  99.1355 260.9814 15.08841760 22701,6917.875,95.437,540.817,538.663,0.0
54768.0,STARLINK-5444,PAYLOAD,2023-05-01 23:40:34,15.08845375,0.000152,53.2183,30.2231,99.6828,260.4336,-5.6309e-05,-1.184e-05,0.0,0 STARLINK-5444,1 54768U 22175L   23121.98650726 -.00001184  00000-0 -56309-4 0  9992,2 54768  53.2183  30.2231 0001520  99.6828 260.4336 15.08845375 20557,6917.864,95.437,540.78,538.677,0.0
54768.0,STARLINK-5444,PAYLOAD,2023-05-02 02:51:19,15.08858044,0.0001719,53.218,29.6285,80.9688,279.1498,-7.1731e-05,-1.43e-05,0.0,0 STARLINK-5444,1 54768U 22175L   23122.11897918 -.00001430  00000-0 -71731-4 0  9994,2 54768  53.2180  29.6285 0001719  80.9688 279.1498 15.08858044 20577,6917.825,95.436,540.879,538.501,0.0
54768.0,STARLINK-5444,PAYLOAD,2023-05-03 02:42:07,15.08841396,0.0001543,53.2187,25.1679,85.9219,274.195,4.1391e-05,3.71e-06,0.0,0 STARLINK-5444,1 54768U 22175L   23123.11258667  .00000371  00000-0  41391-4 0  9997,2 54768  53.2187  25.1679 0001543  85.9219 274.1950 15.08841396 20729,6917.876,95.437,540.809,538.674,0.0
